OBJECT_NAME,OBJECT_ID,EPOCH,MEAN_MOTION,ECCENTRICITY,INCLINATION,RA_OF_ASC_NODE,ARG_OF_PERICENTER,MEAN_ANOMALY,EPHEMERIS_TYPE,CLASSIFICATION_TYPE,NORAD_CAT_ID,ELEMENT_SET_NO,REV_AT_EPOCH,BSTAR,MEAN_MOTION_DOT,MEAN_MOTION_DDOT
KUZGTU 1 (RS47S),2023-091AV,2026-06-20T05:44:11.187168,15.29918392,.00122367,97.5058,235.7502,88.6637,271.6005,0,U,57217,999,16484,.33239845E-3,.9574E-4,0
SONATE-2,2024-043Q,2026-06-20T05:16:14.832768,15.58914873,.00072096,97.5541,321.8019,185.3360,174.7820,0,U,59112,999,12836,.47732043E-3,.37043E-3,0
MESAT1,2024-125G,2026-06-20T01:12:57.608064,15.63472773,.00098321,97.2284,28.5983,192.9282,167.1727,0,U,60209,999,11001,.53418681E-3,.49535E-3,0
OOV-CUBE (TUBSAT-30),2024-128F,2026-06-19T14:00:53.114976,15.02780984,.00443389,61.9930,217.2156,134.2886,226.1856,0,U,60240,999,10647,.11022768E-3,.1296E-4,0
COLIBRI-S (RS67S),2024-199M,2026-06-20T07:03:54.755136,15.47832917,.00063001,97.2989,45.1764,263.2557,96.7976,0,U,61746,999,13789,.36030389E-3,.1866E-3,0
HORS 3 (RS81S),2024-199U,2026-06-20T05:49:18.585408,15.55154691,.00037972,97.2970,47.1440,259.0709,101.0119,0,U,61753,999,13803,.47123969E-3,.31757E-3,0
HORS 4 (RS82S),2024-199V,2026-06-20T06:11:35.526912,15.59928043,.00033996,97.2914,48.3811,239.4114,120.6808,0,U,61754,999,13812,.54891514E-3,.44283E-3,0
SIT-2086,2024-199AF,2026-06-20T06:56:05.803584,15.53271815,.00048914,97.2928,47.6569,235.0370,125.0425,0,U,61764,999,13491,.49632272E-3,.31243E-3,0
HYPERVIEW 1G (RS66S),2024-199AP,2026-06-20T02:38:25.209600,15.76549631,.00047153,97.2851,50.9798,207.8229,152.2786,0,U,61772,999,13513,.78002634E-3,.125192E-2,0
ALTAIR (RS65S),2024-199AW,2026-06-20T05:41:09.388608,15.37062340,.00108917,97.3023,40.5674,298.6156,61.3993,0,U,61779,999,13758,.20806083E-3,.7478E-4,0
ASRTU-1 (AO-123),2024-199AY,2026-06-20T07:01:24.795840,15.35713194,.00120975,97.2995,39.9350,301.4843,58.5218,0,U,61781,999,13440,.18421111E-3,.6331E-4,0
SAMSAT-IONOSPHERE (RS75S),2024-199BB,2026-06-20T06:30:43.526304,15.57858502,.00059664,97.2937,47.2313,260.3206,99.7376,0,U,61784,999,13804,.54722794E-3,.40839E-3,0
RTU MIREA 1 (RS51S),2024-199BC,2026-06-20T06:55:57.372672,15.61381414,.00057545,97.2926,48.0969,251.1705,108.8929,0,U,61785,999,13495,.58805855E-3,.50219E-3,0
TEVEL2-4,2025-052D,2026-06-20T04:21:26.597376,15.34700095,.00049255,97.3892,67.5778,97.4797,262.7005,0,U,63213,999,7057,.48629711E-3,.16297E-3,0
TEVEL2-5,2025-052E,2026-06-20T06:25:21.137664,15.34527610,.00048947,97.3892,67.6107,98.9294,261.2503,0,U,63214,999,7058,.47944881E-3,.15978E-3,0
TEVEL2-6,2025-052F,2026-06-20T06:43:12.625536,15.34492782,.00047592,97.3898,67.6078,99.4633,260.7149,0,U,63215,999,7058,.47994421E-3,.15976E-3,0
TEVEL2-1,2025-052H,2026-06-20T04:18:41.324544,15.33952529,.00048734,97.3873,67.1285,107.5627,252.6148,0,U,63217,999,7055,.47659428E-3,.15594E-3,0
TEVEL2-3,2025-052J,2026-06-19T15:39:21.266208,15.33991826,.00048387,97.3873,66.6229,109.1056,251.0711,0,U,63218,999,7047,.45509628E-3,.14905E-3,0
TEVEL2-2,2025-052K,2026-06-20T04:19:06.949056,15.33961605,.00048713,97.3871,67.1308,108.3125,251.8648,0,U,63219,999,7055,.47832708E-3,.15656E-3,0
TEVEL2-9,2025-052AD,2026-06-20T05:26:14.066016,15.31975924,.00080447,97.3933,66.5461,122.3024,237.8998,0,U,63237,999,7049,.44622807E-3,.13721E-3,0
TEVEL2-7,2025-052AE,2026-06-20T04:51:54.637344,15.31676701,.00080762,97.3934,66.4373,122.8867,237.3153,0,U,63238,999,7048,.43885308E-3,.13367E-3,0
TEVEL2-8,2025-052AF,2026-06-19T16:31:13.361376,15.31647647,.00080754,97.3937,65.9009,124.5955,235.6049,0,U,63239,999,7040,.41221495E-3,.12538E-3,0
INNOSAT 16 (RS92S7),2025-155C,2026-06-20T06:45:50.173344,15.25483768,.00109201,97.4567,138.3995,164.8544,195.3023,0,U,64878,999,8114,.18276674E-3,.456E-4,0
GEOSCAN 6 (RS92S6),2025-155D,2026-06-20T06:07:20.336736,15.30199853,.00087609,97.4560,139.8187,152.7164,207.4538,0,U,64879,999,8123,.29387629E-3,.852E-4,0
GEOSCAN 1 (RS92S1),2025-155E,2026-06-20T06:09:08.642592,15.30799265,.00087216,97.4557,139.9705,152.5565,207.6138,0,U,64880,999,8124,.3204386E-3,.9473E-4,0
239ALFEROV (RS61S),2025-155F,2026-06-20T06:53:05.131680,15.33010020,.0008411,97.4557,140.5731,149.7161,210.4569,0,U,64881,999,8128,.38585613E-3,.12243E-3,0
GEOSCAN 2 (RS92S2),2025-155Q,2026-06-20T05:59:15.988704,15.31070803,.0008415,97.4556,140.1174,140.5078,219.6777,0,U,64890,999,8125,.31402895E-3,.9359E-4,0
GEOSCAN 5 (RS92S5),2025-155R,2026-06-20T06:36:21.531744,15.33326592,.000715,97.4549,140.7002,153.2964,206.8647,0,U,64891,999,8129,.38636386E-3,.12379E-3,0
GEOSCAN 4 (RS92S4),2025-155S,2026-06-20T06:13:08.878656,15.33481925,.00072336,97.4553,140.7330,152.7944,207.3678,0,U,64892,999,8129,.39684578E-3,.1278E-3,0
GEOSCAN 3 (RS92S3),2025-155T,2026-06-20T06:08:30.105600,15.35481878,.00071861,97.4541,141.1685,151.2619,208.9022,0,U,64893,999,8132,.45517745E-3,.15638E-3,0
