KUZGTU 1 (RS47S)        
1 57217U 23091AV  26171.23901837  .00009574  00000+0  33240-3 0  9996
2 57217  97.5058 235.7502 0012236  88.6637 271.6005 15.29918392164847
SONATE-2                
1 59112U 24043Q   26171.21961612  .00037043  00000+0  47732-3 0  9998
2 59112  97.5541 321.8019 0007209 185.3360 174.7820 15.58914873128369
MESAT1                  
1 60209U 24125G   26171.05066676  .00049535  00000+0  53419-3 0  9994
2 60209  97.2284  28.5983 0009832 192.9282 167.1727 15.63472773110010
OOV-CUBE (TUBSAT-30)    
1 60240U 24128F   26170.58394809  .00001296  00000+0  11023-3 0  9998
2 60240  61.9930 217.2156 0044338 134.2886 226.1856 15.02780984106472
COLIBRI-S (RS67S)       
1 61746U 24199M   26171.29438374  .00018660  00000+0  36030-3 0  9991
2 61746  97.2989  45.1764 0006300 263.2557  96.7976 15.47832917137895
HORS 3 (RS81S)          
1 61753U 24199U   26171.24257622  .00031757  00000+0  47124-3 0  9997
2 61753  97.2970  47.1440 0003797 259.0709 101.0119 15.55154691138036
HORS 4 (RS82S)          
1 61754U 24199V   26171.25805008  .00044283  00000+0  54892-3 0  9994
2 61754  97.2914  48.3811 0003399 239.4114 120.6808 15.59928043138126
SIT-2086                
1 61764U 24199AF  26171.28895606  .00031243  00000+0  49632-3 0  9999
2 61764  97.2928  47.6569 0004891 235.0370 125.0425 15.53271815134917
HYPERVIEW 1G (RS66S)    
1 61772U 24199AP  26171.11001400  .00125192  00000+0  78003-3 0  9992
2 61772  97.2851  50.9798 0004715 207.8229 152.2786 15.76549631135133
ALTAIR (RS65S)          
1 61779U 24199AW  26171.23691422  .00007478  00000+0  20806-3 0  9995
2 61779  97.3023  40.5674 0010891 298.6156  61.3993 15.37062340137584
ASRTU-1 (AO-123)        
1 61781U 24199AY  26171.29264810  .00006331  00000+0  18421-3 0  9998
2 61781  97.2995  39.9350 0012097 301.4843  58.5218 15.35713194134407
SAMSAT-IONOSPHERE (RS7*)
1 61784U 24199BB  26171.27133711  .00040839  00000+0  54723-3 0  9990
2 61784  97.2937  47.2313 0005966 260.3206  99.7376 15.57858502138043
RTU MIREA 1 (RS51S)     
1 61785U 24199BC  26171.28885848  .00050219  00000+0  58806-3 0  9996
2 61785  97.2926  48.0969 0005754 251.1705 108.8929 15.61381414134955
TEVEL2-4                
1 63213U 25052D   26171.18155784  .00016297  00000+0  48630-3 0  9993
2 63213  97.3892  67.5778 0004925  97.4797 262.7005 15.34700095 70573
TEVEL2-5                
1 63214U 25052E   26171.26760576  .00015978  00000+0  47945-3 0  9997
2 63214  97.3892  67.6107 0004894  98.9294 261.2503 15.34527610 70582
TEVEL2-6                
1 63215U 25052F   26171.28000724  .00015976  00000+0  47994-3 0  9994
2 63215  97.3898  67.6078 0004759  99.4633 260.7149 15.34492782 70580
TEVEL2-1                
1 63217U 25052H   26171.17964496  .00015594  00000+0  47659-3 0  9993
2 63217  97.3873  67.1285 0004873 107.5627 252.6148 15.33952529 70556
TEVEL2-3                
1 63218U 25052J   26170.65232947  .00014905  00000+0  45510-3 0  9994
2 63218  97.3873  66.6229 0004838 109.1056 251.0711 15.33991826 70477
TEVEL2-2                
1 63219U 25052K   26171.17994154  .00015656  00000+0  47833-3 0  9992
2 63219  97.3871  67.1308 0004871 108.3125 251.8648 15.33961605 70553
TEVEL2-9                
1 63237U 25052AD  26171.22655169  .00013721  00000+0  44623-3 0  9993
2 63237  97.3933  66.5461 0008044 122.3024 237.8998 15.31975924 70497
TEVEL2-7                
1 63238U 25052AE  26171.20271571  .00013367  00000+0  43885-3 0  9998
2 63238  97.3934  66.4373 0008076 122.8867 237.3153 15.31676701 70483
TEVEL2-8                
1 63239U 25052AF  26170.68834909  .00012538  00000+0  41221-3 0  9991
2 63239  97.3937  65.9009 0008075 124.5955 235.6049 15.31647647 70407
INNOSAT 16 (RS92S7)     
1 64878U 25155C   26171.28183071  .00004560  00000+0  18277-3 0  9990
2 64878  97.4567 138.3995 0010920 164.8544 195.3023 15.25483768 81141
GEOSCAN 6 (RS92S6)      
1 64879U 25155D   26171.25509649  .00008520  00000+0  29388-3 0  9996
2 64879  97.4560 139.8187 0008760 152.7164 207.4538 15.30199853 81238
GEOSCAN 1 (RS92S1)      
1 64880U 25155E   26171.25635003  .00009473  00000+0  32044-3 0  9993
2 64880  97.4557 139.9705 0008721 152.5565 207.6138 15.30799265 81245
239ALFEROV (RS61S)      
1 64881U 25155F   26171.28686495  .00012243  00000+0  38586-3 0  9994
2 64881  97.4557 140.5731 0008411 149.7161 210.4569 15.33010020 81281
GEOSCAN 2 (RS92S2)      
1 64890U 25155Q   26171.24949061  .00009359  00000+0  31403-3 0  9996
2 64890  97.4556 140.1174 0008415 140.5078 219.6777 15.31070803 81259
GEOSCAN 5 (RS92S5)      
1 64891U 25155R   26171.27524921  .00012379  00000+0  38636-3 0  9995
2 64891  97.4549 140.7002 0007150 153.2964 206.8647 15.33326592 81297
GEOSCAN 4 (RS92S4)      
1 64892U 25155S   26171.25913054  .00012780  00000+0  39685-3 0  9994
2 64892  97.4553 140.7330 0007233 152.7944 207.3678 15.33481925 81293
GEOSCAN 3 (RS92S3)      
1 64893U 25155T   26171.25590400  .00015638  00000+0  45518-3 0  9998
2 64893  97.4541 141.1685 0007186 151.2619 208.9022 15.35481878 81322
